NORAD_CAT_ID,OBJECT_NAME,OBJECT_TYPE,EPOCH,MEAN_MOTION,ECCENTRICITY,INCLINATION,RA_OF_ASC_NODE,ARG_OF_PERICENTER,MEAN_ANOMALY,BSTAR,MEAN_MOTION_DOT,MEAN_MOTION_DDOT,TLE_LINE0,TLE_LINE1,TLE_LINE2,SEMIMAJOR_AXIS,PERIOD,APOGEE,PERIGEE,DECAYED
51785.0,STARLINK-3646,PAYLOAD,2024-02-27 17:52:48,15.08839233,0.0001585,53.2186,65.32,96.5868,263.5305,1.5568e-05,-4e-07,0.0,0 STARLINK-3646,1 51785U 22017T   24058.74500256 -.00000040  00000-0  15568-4 0  9990,2 51785  53.2186  65.3200 0001585  96.5868 263.5305 15.08839233110569,6917.883,95.438,540.844,538.651,0.0
51785.0,STARLINK-3646,PAYLOAD,2024-02-28 09:46:38,15.08857301,0.000167,53.2174,62.3453,117.5513,242.5649,2.542e-05,1.17e-06,0.0,0 STARLINK-3646,1 51785U 22017T   24059.40738893  .00000117  00000-0  25420-4 0  9996,2 51785  53.2174  62.3453 0001670 117.5513 242.5649 15.08857301112352,6917.828,95.436,540.848,538.537,0.0
51785.0,STARLINK-3646,PAYLOAD,2024-02-28 17:43:34,15.08841102,0.0001694,53.2181,60.8577,94.096,266.0226,-1.1286e-05,-4.68e-06,0.0,0 STARLINK-3646,1 51785U 22017T   24059.73859797 -.00000468  00000-0 -11286-4 0  9995,2 51785  53.2181  60.8577 0001694  94.0960 266.0226 15.08841102112401,6917.877,95.437,540.914,538.57,0.0
51785.0,STARLINK-3646,PAYLOAD,2024-02-29 04:51:17,15.08834379,0.0001627,53.2175,58.7759,110.6749,249.4417,9.7995e-05,1.272e-05,0.0,0 STARLINK-3646,1 51785U 22017T   24060.20228444  .00001272  00000-0  97995-4 0  9991,2 51785  53.2175  58.7759 0001627 110.6749 249.4417 15.08834379112470,6917.898,95.438,540.888,538.637,0.0
51785.0,STARLINK-3646,PAYLOAD,2024-02-29 09:37:26,15.08836201,0.0001605,53.2178,57.8849,102.9557,257.1615,0.00010519,1.386e-05,0.0,0 STARLINK-3646,1 51785U 22017T   24060.40100493  .00001386  00000-0  10519-3 0  9998,2 51785  53.2178  57.8849 0001605 102.9557 257.1615 15.08836201110818,6917.892,95.438,540.867,538.647,0.0
51785.0,STARLINK-3646,PAYLOAD,2024-03-01 09:28:13,15.08846676,0.0001477,53.2167,53.4256,96.5041,263.6119,4.0401e-05,3.55e-06,0.0,0 STARLINK-3646,1 51785U 22017T   24061.39460183  .00000355  00000-0  40401-4 0  9991,2 51785  53.2167  53.4256 0001477  96.5041 263.6119 15.08846676110967,6917.86,95.437,540.747,538.703,0.0
51785.0,STARLINK-3646,PAYLOAD,2024-03-01 15:49:46,15.08845081,0.0001455,53.2165,52.2358,96.1173,263.9985,2.969e-05,1.85e-06,0.0,0 STARLINK-3646,1 51785U 22017T   24061.65956241  .00000185  00000-0  29690-4 0  9993,2 51785  53.2165  52.2358 0001455  96.1173 263.9985 15.08845081111002,6917.865,95.437,540.736,538.723,0.0
51785.0,STARLINK-3646,PAYLOAD,2024-03-02 02:57:28,15.08840727,0.0001579,53.2177,50.1524,96.3566,263.7606,0.00013485,1.859e-05,0.0,0 STARLINK-3646,1 51785U 22017T   24062.12324428  .00001859  00000-0  13485-3 0  9995,2 51785  53.2177  50.1524 0001579  96.3566 263.7606 15.08840727112766,6917.878,95.438,540.835,538.651,0.0
51785.0,STARLINK-3646,PAYLOAD,2024-03-02 06:08:14,15.0884496,0.0001663,53.2177,49.5584,106.7715,253.346,0.00015915,2.246e-05,0.0,0 STARLINK-3646,1 51785U 22017T   24062.25572166  .00002246  00000-0  15915-3 0  9994,2 51785  53.2177  49.5584 0001663 106.7715 253.3460 15.08844960111091,6917.865,95.437,540.881,538.58,0.0
51785.0,STARLINK-3646,PAYLOAD,2024-03-03 04:23:38,15.08838305,0.0001525,53.2181,45.3947,89.5491,270.5676,4.7383e-05,4.66e-06,0.0,0 STARLINK-3646,1 51785U 22017T   24063.18308957  .00000466  00000-0  47383-4 0  9999,2 51785  53.2181  45.3947 0001525  89.5491 270.5676 15.08838305112928,6917.886,95.438,540.806,538.696,0.0
51785.0,STARLINK-3646,PAYLOAD,2024-03-03 07:34:25,15.08841533,0.0001496,53.2181,44.8001,88.1289,271.9874,6.1213e-05,6.86e-06,0.0,0 STARLINK-3646,1 51785U 22017T   24063.31556726  .00000686  00000-0  61213-4 0  9995,2 51785  53.2181  44.8001 0001496  88.1289 271.9874 15.08841533111257,6917.876,95.437,540.776,538.706,0.0
51785.0,STARLINK-3646,PAYLOAD,2024-03-04 04:14:25,15.08847383,0.0001567,53.2181,40.933,88.109,272.0081,-6.8545e-06,-3.97e-06,0.0,0 STARLINK-3646,1 51785U 22017T   24064.17668114 -.00000397  00000-0 -68545-5 0  9992,2 51785  53.2181  40.9330 0001567  88.1090 272.0081 15.08847383113071,6917.858,95.437,540.807,538.639,0.0
51785.0,STARLINK-3646,PAYLOAD,2024-03-04 05:49:49,15.08822562,0.0001754,53.2192,40.6361,88.9388,271.1805,0.00051425,7.902e-05,0.0,0 STARLINK-3646,1 51785U 22017T   24064.24292838  .00007902  00000-0  51425-3 0  9990,2 51785  53.2192  40.6361 0001754  88.9388 271.1805 15.08822562113087,6917.934,95.439,541.012,538.585,0.0
51785.0,STARLINK-3646,PAYLOAD,2024-03-04 15:22:07,15.08849705,0.0001894,53.2194,38.853,83.702,276.4188,0.00019228,2.774e-05,0.0,0 STARLINK-3646,1 51785U 22017T   24064.64035911  .00002774  00000-0  19228-3 0  9998,2 51785  53.2194  38.8530 0001894  83.7020 276.4188 15.08849705113144,6917.851,95.437,541.026,538.405,0.0
51785.0,STARLINK-3646,PAYLOAD,2024-03-05 04:05:13,15.08816299,0.0001386,53.218,36.476,82.0755,278.0395,-0.00029966,-5.051e-05,0.0,0 STARLINK-3646,1 51785U 22017T   24065.17029888 -.00005051  00000-0 -29966-3 0  9996,2 51785  53.2180  36.4760 0001386  82.0755 278.0395 15.08816299113220,6917.953,95.439,540.777,538.859,0.0
51785.0,STARLINK-3646,PAYLOAD,2024-03-05 05:40:36,15.0881864,0.0001392,53.2181,36.1789,82.6799,277.4351,-0.0002523,-4.299e-05,0.0,0 STARLINK-3646,1 51785U 22017T   24065.23653856 -.00004299  00000-0 -25230-3 0  9994,2 51785  53.2181  36.1789 0001392  82.6799 277.4351 15.08818640111540,6917.946,95.439,540.774,538.848,0.0
51785.0,STARLINK-3646,PAYLOAD,2024-03-05 21:34:28,15.08829165,0.0001079,53.2188,33.2022,94.2962,265.8154,8.5098e-05,1.066e-05,0.0,0 STARLINK-3646,1 51785U 22017T   24065.89893771  .00001066  00000-0  85098-4 0  9994,2 51785  53.2188  33.2022 0001079  94.2962 265.8154 15.08829165113333,6917.914,95.438,540.525,539.032,0.0
51785.0,STARLINK-3646,PAYLOAD,2024-03-06 02:20:37,15.08842483,0.000128,53.2175,32.3137,86.6589,273.4549,0.00032887,4.95e-05,0.0,0 STARLINK-3646,1 51785U 22017T   24066.09765408  .00004950  00000-0  32887-3 0  9994,2 51785  53.2175  32.3137 0001280  86.6589 273.4549 15.08842483113364,6917.873,95.437,540.623,538.852,0.0
51785.0,STARLINK-3646,PAYLOAD,2024-03-06 07:06:46,15.08853745,0.0001262,53.2171,31.4218,98.108,262.0055,0.00052802,8.129e-05,0.0,0 STARLINK-3646,1 51785U 22017T   24066.29636981  .00008129  00000-0  52802-3 0  9990,2 51785  53.2171  31.4218 0001262  98.1080 262.0055 15.08853745113396,6917.838,95.437,540.576,538.83,0.0
51785.0,STARLINK-3646,PAYLOAD,2024-03-07 03:46:47,15.08844372,0.0001236,53.2164,27.5537,85.9807,274.1326,0.00035006,5.288e-05,0.0,0 STARLINK-3646,1 51785U 22017T   24067.15749207  .00005288  00000-0  35006-3 0  9992,2 51785  53.2164  27.5537 0001236  85.9807 274.1326 15.08844372113526,6917.867,95.437,540.587,538.877,0.0
51785.0,STARLINK-3646,PAYLOAD,2024-03-07 06:57:33,15.08844617,0.0001143,53.2174,26.9581,90.3874,269.7249,0.00021061,3.066e-05,0.0,0 STARLINK-3646,1 51785U 22017T   24067.28997111  .00003066  00000-0  21061-3 0  9993,2 51785  53.2174  26.9581 0001143  90.3874 269.7249 15.08844617111850,6917.866,95.437,540.522,538.941,0.0
51785.0,STARLINK-3646,PAYLOAD,2024-03-08 03:37:35,15.08801318,0.0001447,53.2183,23.0924,96.2137,263.902,0.0006676,0.00010342,0.0,0 STARLINK-3646,1 51785U 22017T   24068.15110379  .00010342  00000-0  66760-3 0  9993,2 51785  53.2183  23.0924 0001447  96.2137 263.9020 15.08801318113679,6917.999,95.44,540.865,538.863,0.0
51785.0,STARLINK-3646,PAYLOAD,2024-03-08 21:06:48,15.0883543,0.0001322,53.2188,19.8214,92.3932,267.7211,3.9655e-05,3.43e-06,0.0,0 STARLINK-3646,1 51785U 22017T   24068.87973296  .00000343  00000-0  39655-4 0  9991,2 51785  53.2188  19.8214 0001322  92.3932 267.7211 15.08835430112092,6917.894,95.438,540.674,538.845,0.0
51785.0,STARLINK-3646,PAYLOAD,2024-03-09 03:28:21,15.08832024,0.0001307,53.219,18.6304,96.171,263.9431,9.1401e-06,-1.42e-06,0.0,0 STARLINK-3646,1 51785U 22017T   24069.14469626 -.00000142  00000-0  91401-5 0  9995,2 51785  53.2190  18.6304 0001307  96.1710 263.9431 15.08832024113821,6917.905,95.438,540.674,538.866,0.0
51785.0,STARLINK-3646,PAYLOAD,2024-03-09 13:00:39,15.0884173,0.0001427,53.2204,16.8497,116.9777,243.1361,4.0623e-05,3.59e-06,0.0,0 STARLINK-3646,1 51785U 22017T   24069.54212858  .00000359  00000-0  40623-4 0  9990,2 51785  53.2204  16.8497 0001427 116.9777 243.1361 15.08841730113889,6917.875,95.437,540.727,538.753,0.0
51785.0,STARLINK-3646,PAYLOAD,2024-03-09 20:57:36,15.0883535,0.000176,53.2205,15.3655,102.0694,258.0495,6.203e-05,6.99e-06,0.0,0 STARLINK-3646,1 51785U 22017T   24069.87333471  .00000699  00000-0  62030-4 0  9994,2 51785  53.2205  15.3655 0001760 102.0694 258.0495 15.08835350113934,6917.895,95.438,540.977,538.542,0.0
51785.0,STARLINK-3646,PAYLOAD,2024-03-10 12:51:26,15.08848936,0.000128,53.2199,12.387,91.6577,268.4562,0.00014565,2.031e-05,0.0,0 STARLINK-3646,1 51785U 22017T   24070.53572213  .00002031  00000-0  14565-3 0  9999,2 51785  53.2199  12.3870 0001280  91.6577 268.4562 15.08848936114038,6917.853,95.437,540.604,538.833,0.0
51785.0,STARLINK-3646,PAYLOAD,2024-03-10 20:48:24,15.08821894,0.0001288,53.2205,10.903,104.8563,255.2572,-1.9458e-05,-5.97e-06,0.0,0 STARLINK-3646,1 51785U 22017T   24070.86694489 -.00000597  00000-0 -19458-4 0  9999,2 51785  53.2205  10.9030 0001288 104.8563 255.2572 15.08821894114082,6917.936,95.439,540.692,538.91,0.0
51785.0,STARLINK-3646,PAYLOAD,2024-03-10 22:23:47,15.08822926,0.0001548,53.2193,10.6044,86.4545,273.6624,9.0724e-06,-1.44e-06,0.0,0 STARLINK-3646,1 51785U 22017T   24070.93318550 -.00000144  00000-0  90724-5 0  9992,2 51785  53.2193  10.6044 0001548  86.4545 273.6624 15.08822926112407,6917.933,95.439,540.868,538.727,0.0
51785.0,STARLINK-3646,PAYLOAD,2024-03-11 12:42:14,15.08843214,0.0001244,53.2183,7.9314,90.9526,269.1609,6.4351e-05,7.37e-06,0.0,0 STARLINK-3646,1 51785U 22017T   24071.52933243  .00000737  00000-0  64351-4 0  9993,2 51785  53.2183   7.9314 0001244  90.9526 269.1609 15.08843214114180,6917.871,95.437,540.596,538.875,0.0
